{"type": "FeatureCollection", "source": "geoBoundaries gbOpen GIN ADM3 (WFP, OCHA ROWCA), CC BY 3.0 IGO", "features": [{"type": "Feature", "properties": {"shapeName": "Babila", "shapeISO": "", "shapeID": "73739313B77477433225827", "shapeGroup": "GIN", "shapeType": "ADM3"}, "geometry": {"type": "Polygon", "coordinates": [[[-9.649565, 10.624718], [-9.655946, 10.642776], [-9.66238, 10.650713], [-9.679764, 10.659997], [-9.68468, 10.672702], [-9.686589, 10.688675], [-9.710462, 10.695294], [-9.752852, 10.684724], [-9.765883, 10.668791], [-9.803537, 10.610817], [-9.805648, 10.587753], [-9.757885, 10.57789], [-9.737493, 10.572357], [-9.726535, 10.572457], [-9.729443, 10.587983], [-9.729287, 10.618345], [-9.712827, 10.623072], [-9.69542, 10.618126], [-9.682002, 10.612355], [-9.668567, 10.609957], [-9.656098, 10.613378], [-9.649565, 10.624718]]]}}, {"type": "Feature", "properties": {"shapeName": "Banfele", "shapeISO": "", "shapeID": "73739313B83713905274980", "shapeGroup": "GIN", "shapeType": "ADM3"}, "geometry": {"type": "Polygon", "coordinates": [[[-9.737967, 10.287015], [-9.746457, 10.282491], [-9.786825, 10.277635], [-9.81676, 10.267594], [-9.852639, 10.264028], [-9.890452, 10.271615], [-9.928231, 10.28595], [-9.972389, 10.318824], [-10.018016, 10.356571], [-10.060588, 10.407225], [-10.108829, 10.420961], [-10.128519, 10.423246], [-10.125219, 10.414659], [-10.135085, 10.401839], [-10.145808, 10.401163], [-10.152938, 10.407434], [-10.151802, 10.390782], [-10.161434, 10.375256], [-10.153595, 10.36564], [-10.157058, 10.354117], [-10.169275, 10.352353], [-10.166919, 10.340936], [-10.179776, 10.327016], [-10.195795, 10.324578], [-10.221473, 10.337733], [-10.239447, 10.338562], [-10.241262, 10.327518], [-10.226878, 10.319384], [-10.22571, 10.303886], [-10.236491, 10.29286], [-10.235956, 10.288106], [-10.225697, 10.293213], [-10.226834, 10.28578], [-10.236794, 10.255649], [-10.201884, 10.20617], [-10.220493, 10.179196], [-10.237341, 10.175491], [-10.228554, 10.158238], [-10.254984, 10.154582], [-10.259376, 10.147274], [-10.253231, 10.139305], [-10.265748, 10.125313], [-10.28037, 10.123638], [-10.285574, 10.110518], [-10.305139, 10.095111], [-10.323269, 10.100806], [-10.325471, 10.090872], [-10.329524, 10.078449], [-10.320761, 10.058456], [-10.327377, 10.042767], [-10.349704, 10.020272], [-10.361583, 10.001992], [-10.360433, 9.992888], [-10.35257, 10.00499], [-10.332127, 10.001687], [-10.301226, 10.00591], [-10.251414, 10.007062], [-10.219624, 9.990526], [-10.14942, 9.986145], [-10.031279, 10.005637], [-9.99191, 10.010046], [-9.963976, 10.018228], [-9.922662, 10.01341], [-9.883263, 10.023603], [-9.845908, 10.023743], [-9.799034, 10.034638], [-9.755584, 10.057704], [-9.707569, 10.066875], [-9.691956, 10.075977], [-9.671757, 10.098351], [-9.671978, 10.102958], [-9.676838, 10.113024], [-9.680436, 10.116284], [-9.686948, 10.118442], [-9.695235, 10.11621], [-9.702069, 10.111655], [-9.708921, 10.110046], [-9.716217, 10.116343], [-9.720226, 10.124308], [-9.733252, 10.129274], [-9.738877, 10.130023], [-9.7449, 10.12839], [-9.747964, 10.135685], [-9.74893, 10.156225], [-9.750378, 10.160072], [-9.745872, 10.174057], [-9.737552, 10.178152], [-9.702515, 10.188744], [-9.698148, 10.192446], [-9.694064, 10.202207], [-9.700316, 10.21581], [-9.698424, 10.223118], [-9.700286, 10.231453], [-9.705691, 10.24286], [-9.708618, 10.261676], [-9.737967, 10.287015]]]}}, {"type": "Feature", "properties": {"shapeName": "Balato", "shapeISO": "", "shapeID": "73739313B41512137807356", "shapeGroup": "GIN", "shapeType": "ADM3"}, "geometry": {"type": "Polygon", "coordinates": [[[-9.420847, 10.710602], [-9.43591, 10.718961], [-9.453242, 10.738365], [-9.463657, 10.746924], [-9.481034, 10.757654], [-9.497432, 10.764975], [-9.530615, 10.801322], [-9.547533, 10.804323], [-9.569461, 10.801715], [-9.617251, 10.806277], [-9.630905, 10.766264], [-9.632996, 10.747056], [-9.622688, 10.717774], [-9.609342, 10.698027], [-9.601474, 10.678471], [-9.594131, 10.653631], [-9.572161, 10.664432], [-9.522822, 10.670421], [-9.494403, 10.676176], [-9.474982, 10.675498], [-9.463001, 10.680863], [-9.446509, 10.691856], [-9.420847, 10.710602]]]}}, {"type": "Feature", "properties": {"shapeName": "Baro", "shapeISO": "", "shapeID": "73739313B31542077036071", "shapeGroup": "GIN", "shapeType": "ADM3"}, "geometry": {"type": "Polygon", "coordinates": [[[-9.726535, 10.572457], [-9.714641, 10.560954], [-9.709654, 10.562226], [-9.70323, 10.552361], [-9.705286, 10.539901], [-9.722292, 10.526034], [-9.731805, 10.516244], [-9.745796, 10.507574], [-9.74838, 10.489347], [-9.760839, 10.487855], [-9.759397, 10.477682], [-9.740033, 10.465918], [-9.740068, 10.459171], [-9.75606, 10.448643], [-9.768089, 10.434121], [-9.759207, 10.417904], [-9.743844, 10.402906], [-9.729498, 10.384088], [-9.727122, 10.361832], [-9.749563, 10.356349], [-9.769029, 10.348353], [-9.765159, 10.326045], [-9.752774, 10.313079], [-9.734342, 10.313881], [-9.725398, 10.309713], [-9.726937, 10.30109], [-9.737967, 10.287015], [-9.708618, 10.261676], [-9.708821, 10.287092], [-9.710588, 10.297177], [-9.709838, 10.330752], [-9.704468, 10.370508], [-9.704251, 10.375648], [-9.699769, 10.387665], [-9.699964, 10.412942], [-9.693908, 10.428155], [-9.68184, 10.450389], [-9.670754, 10.475549], [-9.650482, 10.543288], [-9.633841, 10.583197], [-9.629834, 10.601284], [-9.612722, 10.621985], [-9.628672, 10.61965], [-9.649565, 10.624718], [-9.656098, 10.613378], [-9.668567, 10.609957], [-9.682002, 10.612355], [-9.69542, 10.618126], [-9.712827, 10.623072], [-9.729287, 10.618345], [-9.729443, 10.587983], [-9.726535, 10.572457]]]}}, {"type": "Feature", "properties": {"shapeName": "Cissela", "shapeISO": "", "shapeID": "73739313B85409235049849", "shapeGroup": "GIN", "shapeType": "ADM3"}, "geometry": {"type": "Polygon", "coordinates": [[[-10.509094, 10.751011], [-10.483145, 10.754587], [-10.479104, 10.765532], [-10.472689, 10.850626], [-10.467077, 10.87646], [-10.4475, 10.906143], [-10.459914, 10.913326], [-10.48178, 10.922766], [-10.509575, 10.941572], [-10.585478, 10.999657], [-10.603789, 11.02247], [-10.618617, 11.044679], [-10.63144, 11.069229], [-10.663809, 11.144629], [-10.676476, 11.147598], [-10.687754, 11.16274], [-10.68984, 11.163405], [-10.690035, 11.158725], [-10.699379, 11.157476], [-10.703451, 11.154657], [-10.715937, 11.140283], [-10.720925, 11.144409], [-10.720635, 11.13326], [-10.725499, 11.129346], [-10.722473, 11.11564], [-10.716854, 11.102797], [-10.714482, 11.093105], [-10.71814, 11.058776], [-10.737254, 11.05058], [-10.746317, 11.030367], [-10.773311, 11.014308], [-10.791086, 10.999675], [-10.795371, 10.992257], [-10.794014, 10.987701], [-10.798968, 10.982488], [-10.799423, 10.967785], [-10.797178, 10.959292], [-10.798039, 10.955658], [-10.80984, 10.945749], [-10.811838, 10.940991], [-10.817568, 10.933999], [-10.815442, 10.929912], [-10.83678, 10.921944], [-10.841907, 10.917967], [-10.842765, 10.914768], [-10.848968, 10.913745], [-10.856031, 10.909123], [-10.86117, 10.909404], [-10.868727, 10.907297], [-10.877654, 10.895732], [-10.892172, 10.894022], [-10.906486, 10.883103], [-10.90851, 10.879839], [-10.908789, 10.875836], [-10.904161, 10.8693], [-10.897558, 10.864208], [-10.883112, 10.860351], [-10.8676, 10.853171], [-10.864787, 10.853049], [-10.85891, 10.84847], [-10.845612, 10.841779], [-10.832851, 10.830685], [-10.827253, 10.828299], [-10.81969, 10.8257], [-10.806734, 10.816934], [-10.802105, 10.81709], [-10.79946, 10.814528], [-10.78952, 10.811212], [-10.776468, 10.808363], [-10.763201, 10.802756], [-10.747514, 10.799905], [-10.716141, 10.782622], [-10.694863, 10.765576], [-10.685657, 10.752564], [-10.678812, 10.746447], [-10.678104, 10.743349], [-10.674405, 10.740744], [-10.673228, 10.736987], [-10.668939, 10.735324], [-10.618356, 10.744605], [-10.602421, 10.744049], [-10.586504, 10.740118], [-10.568017, 10.751523], [-10.554046, 10.756337], [-10.531613, 10.760374], [-10.511689, 10.760641], [-10.509094, 10.751011]]]}}, {"type": "Feature", "properties": {"shapeName": "Douako", "shapeISO": "", "shapeID": "73739313B60628867340300", "shapeGroup": "GIN", "shapeType": "ADM3"}, "geometry": {"type": "Polygon", "coordinates": [[[-10.360433, 9.992888], [-10.359644, 9.986645], [-10.34604, 9.962825], [-10.343442, 9.947228], [-10.337538, 9.928228], [-10.334315, 9.91159], [-10.327657, 9.8949], [-10.335363, 9.886055], [-10.341554, 9.881692], [-10.340385, 9.874089], [-10.350607, 9.864149], [-10.368863, 9.864414], [-10.372063010999966, 9.854566], [-10.375118, 9.817268], [-10.368922, 9.805481], [-10.366805, 9.782994], [-10.387735, 9.774826], [-10.393401, 9.760512], [-10.404895, 9.757664], [-10.414239, 9.734135], [-10.409755, 9.698576], [-10.403166, 9.695696], [-10.40369, 9.686302], [-10.403403, 9.654628], [-10.405852, 9.640081], [-10.411667, 9.626779], [-10.425363, 9.612595], [-10.428198, 9.594909], [-10.421201, 9.583091], [-10.418876, 9.561766], [-10.404165, 9.569407], [-10.383373, 9.563364], [-10.369094, 9.547032], [-10.342741, 9.542492], [-10.325503, 9.547147], [-10.294868, 9.54363], [-10.281655, 9.546202], [-10.265478, 9.559889], [-10.241868, 9.57162], [-10.236853, 9.579824], [-10.225797, 9.590115], [-10.221073, 9.600068], [-10.22023, 9.609908], [-10.216348, 9.615742], [-10.201153, 9.626147], [-10.179327, 9.653795], [-10.173428, 9.671], [-10.172107, 9.682624], [-10.160642, 9.699254], [-10.144857, 9.700256], [-10.125931, 9.685196], [-10.118243, 9.681127], [-10.107299, 9.671263], [-10.099509, 9.650505], [-10.099004, 9.634766], [-10.09392, 9.624313], [-10.066249, 9.610024], [-10.044165, 9.622799], [-10.025551, 9.644676], [-10.00478, 9.658432], [-9.975295, 9.668038], [-9.951461, 9.663136], [-9.927814, 9.65482], [-9.923464, 9.653785], [-9.921093, 9.657263], [-9.919842, 9.66304], [-9.923354, 9.667431], [-9.929428, 9.667788], [-9.929109, 9.673188], [-9.925961, 9.674599], [-9.915411, 9.676816], [-9.905912, 9.675554], [-9.896066, 9.683732], [-9.893819, 9.683565], [-9.887561, 9.678635], [-9.882722, 9.679335], [-9.879905, 9.682073], [-9.874407, 9.682811], [-9.865196, 9.687316], [-9.861424, 9.684831], [-9.857487, 9.684608], [-9.85106, 9.689035], [-9.845672, 9.68911], [-9.835657, 9.695004], [-9.829939, 9.70423], [-9.829134, 9.712748], [-9.81849, 9.734862], [-9.810994, 9.735308], [-9.798369, 9.745053], [-9.794858, 9.751138], [-9.793091, 9.764766], [-9.770082, 9.807265], [-9.766987, 9.807034], [-9.759624, 9.802671], [-9.752935, 9.809072], [-9.749631, 9.808378], [-9.746748, 9.811299], [-9.744473, 9.815243], [-9.744258, 9.819255], [-9.746028, 9.828581], [-9.734297, 9.840602], [-9.728154, 9.849556], [-9.715743, 9.859943], [-9.714848, 9.862975], [-9.716183, 9.868467], [-9.712791, 9.874106], [-9.712284, 9.87948], [-9.717523, 9.882579], [-9.72626, 9.891779], [-9.73926, 9.88991], [-9.742301, 9.893089], [-9.744517, 9.89857], [-9.741588, 9.901312], [-9.741032, 9.905162], [-9.743329, 9.909473], [-9.764989, 9.929791], [-9.77067, 9.936829], [-9.770892, 9.940781], [-9.749013, 9.955867], [-9.730111, 9.963187], [-9.718029, 9.972973], [-9.702443, 9.98906], [-9.697218, 9.996728], [-9.689534, 9.996563], [-9.676701, 10.000169], [-9.676204, 10.003104], [-9.679637, 10.010013], [-9.68133, 10.019922], [-9.690723, 10.033599], [-9.694492, 10.035976], [-9.702137, 10.045272], [-9.707405, 10.058045], [-9.707569, 10.066875], [-9.755584, 10.057704], [-9.799034, 10.034638], [-9.845908, 10.023743], [-9.883263, 10.023603], [-9.922662, 10.01341], [-9.963976, 10.018228], [-9.99191, 10.010046], [-10.031279, 10.005637], [-10.14942, 9.986145], [-10.219624, 9.990526], [-10.251414, 10.007062], [-10.301226, 10.00591], [-10.332127, 10.001687], [-10.35257, 10.00499], [-10.360433, 9.992888]]]}}, {"type": "Feature", "properties": {"shapeName": "Doura", "shapeISO": "", "shapeID": "73739313B69998439313290", "shapeGroup": "GIN", "shapeType": "ADM3"}, "geometry": {"type": "Polygon", "coordinates": [[[-9.420847, 10.710602], [-9.417776, 10.717747], [-9.416836, 10.724407], [-9.411248, 10.733306], [-9.41022, 10.774942], [-9.402094, 10.805508], [-9.392984, 10.833629], [-9.374717, 10.857695], [-9.393259, 10.861708], [-9.416872, 10.862809], [-9.449635, 10.867188], [-9.472925, 10.875687], [-9.516685, 10.883125], [-9.536934, 10.885017], [-9.539322, 10.888247], [-9.54585, 10.892083], [-9.551867, 10.889447], [-9.562694, 10.888675], [-9.573545, 10.893231], [-9.644494, 10.903095], [-9.686149, 10.916008], [-9.687795, 10.918017], [-9.694067, 10.920239], [-9.697238, 10.919872], [-9.701027, 10.923022], [-9.709431, 10.925329], [-9.728093, 10.934106], [-9.743761, 10.937157], [-9.761693, 10.953908], [-9.783207, 10.986391], [-9.795891, 11.001272], [-9.795589, 11.003201], [-9.803924, 11.013846], [-9.803673, 11.018715], [-9.807746, 11.033776], [-9.845429, 10.986815], [-9.871455, 10.962177], [-9.902941, 10.941104], [-9.900042, 10.92365], [-9.90359, 10.911723], [-9.883848, 10.876809], [-9.849682, 10.838017], [-9.816385, 10.823839], [-9.741739, 10.811591], [-9.685424, 10.8183], [-9.6506, 10.810335], [-9.635659, 10.810295], [-9.617251, 10.806277], [-9.569461, 10.801715], [-9.547533, 10.804323], [-9.530615, 10.801322], [-9.497432, 10.764975], [-9.481034, 10.757654], [-9.463657, 10.746924], [-9.453242, 10.738365], [-9.43591, 10.718961], [-9.420847, 10.710602]]]}}, {"type": "Feature", "properties": {"shapeName": "Kiniero", "shapeISO": "", "shapeID": "73739313B29503978974944", "shapeGroup": "GIN", "shapeType": "ADM3"}, "geometry": {"type": "Polygon", "coordinates": [[[-9.805648, 10.587753], [-9.8062, 10.577168], [-9.808722, 10.57099], [-9.824244, 10.555143], [-9.862734, 10.528049], [-9.878696, 10.523304], [-9.881682, 10.52389], [-9.913091, 10.517757], [-9.940982, 10.517768], [-9.962955, 10.506485], [-9.993401, 10.494052], [-10.017841, 10.487193], [-10.073155, 10.481414], [-10.089573, 10.48488], [-10.109253, 10.482838], [-10.115997, 10.484381], [-10.118623, 10.48079], [-10.116618, 10.466018], [-10.116941, 10.456064], [-10.123337, 10.453216], [-10.140076, 10.463432], [-10.150614, 10.461893], [-10.154123, 10.45203], [-10.152688, 10.442158], [-10.145861, 10.421644], [-10.129367, 10.425451], [-10.128519, 10.423246], [-10.108829, 10.420961], [-10.060588, 10.407225], [-10.018016, 10.356571], [-9.972389, 10.318824], [-9.928231, 10.28595], [-9.890452, 10.271615], [-9.852639, 10.264028], [-9.81676, 10.267594], [-9.786825, 10.277635], [-9.746457, 10.282491], [-9.737967, 10.287015], [-9.726937, 10.30109], [-9.725398, 10.309713], [-9.734342, 10.313881], [-9.752774, 10.313079], [-9.765159, 10.326045], [-9.769029, 10.348353], [-9.749563, 10.356349], [-9.727122, 10.361832], [-9.729498, 10.384088], [-9.743844, 10.402906], [-9.759207, 10.417904], [-9.768089, 10.434121], [-9.75606, 10.448643], [-9.740068, 10.459171], [-9.740033, 10.465918], [-9.759397, 10.477682], [-9.760839, 10.487855], [-9.74838, 10.489347], [-9.745796, 10.507574], [-9.731805, 10.516244], [-9.722292, 10.526034], [-9.705286, 10.539901], [-9.70323, 10.552361], [-9.709654, 10.562226], [-9.714641, 10.560954], [-9.726535, 10.572457], [-9.737493, 10.572357], [-9.757885, 10.57789], [-9.805648, 10.587753]]]}}, {"type": "Feature", "properties": {"shapeName": "Komola Khoura", "shapeISO": "", "shapeID": "73739313B6606446840451", "shapeGroup": "GIN", "shapeType": "ADM3"}, "geometry": {"type": "Polygon", "coordinates": [[[-10.350002, 11.403432], [-10.351618, 11.401659], [-10.3544, 11.381751], [-10.345026, 11.368221], [-10.352111, 11.35504], [-10.361006, 11.348068], [-10.371622, 11.330907], [-10.380228, 11.322627], [-10.410721, 11.312785], [-10.445804, 11.310573], [-10.468367, 11.303205], [-10.475761, 11.29452], [-10.47628, 11.285492], [-10.468238, 11.274326], [-10.443231, 11.255601], [-10.512555, 11.197074], [-10.537279, 11.186371], [-10.568904, 11.183158], [-10.589711, 11.183721], [-10.609808, 11.189034], [-10.626032, 11.191327], [-10.638359, 11.198249], [-10.644987, 11.199209], [-10.633866, 11.179121], [-10.652792, 11.184317], [-10.663143, 11.183478], [-10.6593, 11.174793], [-10.666079, 11.173542], [-10.665143, 11.154693], [-10.677109, 11.157498], [-10.687754, 11.16274], [-10.676476, 11.147598], [-10.663809, 11.144629], [-10.63144, 11.069229], [-10.618617, 11.044679], [-10.603789, 11.02247], [-10.585478, 10.999657], [-10.509575, 10.941572], [-10.48178, 10.922766], [-10.459914, 10.913326], [-10.4475, 10.906143], [-10.419106, 10.907079], [-10.391234, 10.903213], [-10.37082, 10.902018], [-10.343422, 10.902989], [-10.2623, 10.890996], [-10.239373, 10.894051], [-10.234745, 10.922329], [-10.220259, 10.9305], [-10.203209, 10.953041], [-10.195152, 10.970113], [-10.168239, 10.97351], [-10.148211, 10.99402], [-10.137675, 11.009077], [-10.12958, 11.033377], [-10.105608, 11.046036], [-10.075782, 11.034872], [-10.042451, 11.027441], [-10.01998, 11.038706], [-9.996857, 11.079835], [-9.993745, 11.103827], [-9.949723, 11.141333], [-9.926682, 11.166558], [-9.903186, 11.183572], [-9.871762, 11.192596], [-9.832598, 11.192492], [-9.833616, 11.200998], [-9.837046, 11.207007], [-9.857958, 11.217265], [-9.873187, 11.235312], [-9.872501, 11.252242], [-9.873809, 11.262059], [-9.872087, 11.279638], [-9.874111, 11.299633], [-9.878943, 11.318764], [-9.887273, 11.33235], [-9.897262, 11.334478], [-9.906078, 11.339247], [-9.928224, 11.35528], [-9.944692, 11.364898], [-9.95299, 11.371468], [-9.954303, 11.374269], [-9.957592, 11.372864], [-9.973066, 11.382403], [-9.979434, 11.384677], [-9.984472, 11.380371], [-9.989411, 11.380787], [-10.003509, 11.385815], [-10.014017, 11.386176], [-10.01626, 11.387491], [-10.016937, 11.391891], [-10.014864, 11.400662], [-10.00412, 11.397059], [-10.002851, 11.401627], [-10.004753, 11.406959], [-10.013945, 11.40947], [-10.019793, 11.413595], [-10.023209, 11.420398], [-10.029092, 11.417158], [-10.030967, 11.407949], [-10.048582, 11.397034], [-10.050072, 11.375668], [-10.057274, 11.364271], [-10.070984, 11.356528], [-10.077703, 11.354308], [-10.081973, 11.358789], [-10.068961, 11.374409], [-10.067822, 11.383221], [-10.063362, 11.3967], [-10.067989, 11.395123], [-10.072639, 11.388177], [-10.085243, 11.382208], [-10.103262, 11.378547], [-10.115481, 11.384911], [-10.12103, 11.390739], [-10.131612, 11.376997], [-10.135643, 11.368777], [-10.124081, 11.35436], [-10.127067, 11.350563], [-10.137884, 11.350352], [-10.152217, 11.350737], [-10.164782, 11.35304], [-10.16911, 11.361437], [-10.163494, 11.371938], [-10.152486, 11.382922], [-10.155239, 11.391025], [-10.170653, 11.387422], [-10.182188, 11.38199], [-10.189843, 11.384087], [-10.193313, 11.396148], [-10.195039, 11.414224], [-10.203033, 11.404893], [-10.217568, 11.401067], [-10.22213, 11.416142], [-10.23314, 11.423041], [-10.239263, 11.422956], [-10.248531, 11.42553], [-10.254809, 11.423738], [-10.243708, 11.411544], [-10.247214, 11.405715], [-10.255586, 11.402408], [-10.266724, 11.395156], [-10.274372, 11.399321], [-10.288983, 11.414102], [-10.294129, 11.410747], [-10.296724, 11.403029], [-10.301185, 11.386393], [-10.300256, 11.379784], [-10.320381, 11.37035], [-10.333165, 11.373551], [-10.331524, 11.381564], [-10.322949, 11.390459], [-10.317323, 11.405024], [-10.318795, 11.424149], [-10.321229, 11.430617], [-10.325213, 11.423773], [-10.329144, 11.401038], [-10.335841, 11.394531], [-10.345914, 11.407915], [-10.350002, 11.403432]]]}}, {"type": "Feature", "properties": {"shapeName": "Koumana", "shapeISO": "", "shapeID": "73739313B41128408250381", "shapeGroup": "GIN", "shapeType": "ADM3"}, "geometry": {"type": "Polygon", "coordinates": [[[-9.649565, 10.624718], [-9.628672, 10.61965], [-9.612722, 10.621985], [-9.60665, 10.640572], [-9.594131, 10.653631], [-9.601474, 10.678471], [-9.609342, 10.698027], [-9.622688, 10.717774], [-9.632996, 10.747056], [-9.630905, 10.766264], [-9.617251, 10.806277], [-9.635659, 10.810295], [-9.6506, 10.810335], [-9.685424, 10.8183], [-9.741739, 10.811591], [-9.816385, 10.823839], [-9.849682, 10.838017], [-9.883848, 10.876809], [-9.90359, 10.911723], [-9.918641, 10.890558], [-9.921255, 10.866548], [-9.915899, 10.842741], [-9.922953, 10.827081], [-9.881693, 10.81166], [-9.869341, 10.79243], [-9.86944, 10.773152], [-9.843135, 10.755362], [-9.82885, 10.724496], [-9.808523, 10.706432], [-9.781194, 10.693909], [-9.752852, 10.684724], [-9.710462, 10.695294], [-9.686589, 10.688675], [-9.68468, 10.672702], [-9.679764, 10.659997], [-9.66238, 10.650713], [-9.655946, 10.642776], [-9.649565, 10.624718]]]}}, {"type": "Feature", "properties": {"shapeName": "Kouroussa Ctre", "shapeISO": "", "shapeID": "73739313B99734393924412", "shapeGroup": "GIN", "shapeType": "ADM3"}, "geometry": {"type": "Polygon", "coordinates": [[[-9.752852, 10.684724], [-9.781194, 10.693909], [-9.808523, 10.706432], [-9.82885, 10.724496], [-9.843135, 10.755362], [-9.86944, 10.773152], [-9.869341, 10.79243], [-9.881693, 10.81166], [-9.922953, 10.827081], [-9.931503, 10.810991], [-9.951834, 10.731685], [-9.958516, 10.691428], [-9.971166, 10.652826], [-10.000237, 10.617208], [-10.02877, 10.589283], [-10.056835, 10.555558], [-10.088733, 10.55137], [-10.127129, 10.542589], [-10.135527, 10.521401], [-10.132022, 10.513779], [-10.133125, 10.506488], [-10.139499, 10.498518], [-10.109886, 10.492738], [-10.115997, 10.484381], [-10.109253, 10.482838], [-10.089573, 10.48488], [-10.073155, 10.481414], [-10.017841, 10.487193], [-9.993401, 10.494052], [-9.962955, 10.506485], [-9.940982, 10.517768], [-9.913091, 10.517757], [-9.881682, 10.52389], [-9.878696, 10.523304], [-9.862734, 10.528049], [-9.824244, 10.555143], [-9.808722, 10.57099], [-9.8062, 10.577168], [-9.805648, 10.587753], [-9.803537, 10.610817], [-9.765883, 10.668791], [-9.752852, 10.684724]]]}}, {"type": "Feature", "properties": {"shapeName": "Sanguiana", "shapeISO": "", "shapeID": "73739313B39858006192076", "shapeGroup": "GIN", "shapeType": "ADM3"}, "geometry": {"type": "Polygon", "coordinates": [[[-10.467392, 10.535978], [-10.467331, 10.531563], [-10.457825, 10.529751], [-10.443691, 10.524135], [-10.4314, 10.515568], [-10.422769, 10.513245], [-10.419003, 10.511367], [-10.414233, 10.512075], [-10.407799, 10.528161], [-10.404105, 10.542896], [-10.401124, 10.547027], [-10.392253, 10.538285], [-10.385791, 10.527908], [-10.37721, 10.539827], [-10.363574, 10.537318], [-10.352082, 10.531481], [-10.354327, 10.512033], [-10.337253, 10.510051], [-10.332073, 10.528579], [-10.322202, 10.531814], [-10.310446, 10.538883], [-10.295072, 10.555314], [-10.292522, 10.550606], [-10.291856, 10.534097], [-10.292883, 10.527059], [-10.27751, 10.521096], [-10.253515, 10.51908], [-10.237845, 10.519789], [-10.221037, 10.527606], [-10.212892, 10.524626], [-10.219405, 10.515465], [-10.2337, 10.510513], [-10.232228, 10.501363], [-10.237094, 10.484747], [-10.22591, 10.489142], [-10.214173, 10.48503], [-10.193559, 10.445022], [-10.18713, 10.448089], [-10.195246, 10.461526], [-10.180617, 10.473329], [-10.180024, 10.487934], [-10.175376, 10.488358], [-10.167257, 10.482565], [-10.153508, 10.495158], [-10.148722, 10.514114], [-10.145419, 10.537064], [-10.138199, 10.536062], [-10.137974, 10.526723], [-10.135527, 10.521401], [-10.127129, 10.542589], [-10.088733, 10.55137], [-10.056835, 10.555558], [-10.02877, 10.589283], [-10.000237, 10.617208], [-9.971166, 10.652826], [-9.958516, 10.691428], [-9.951834, 10.731685], [-9.931503, 10.810991], [-9.922953, 10.827081], [-9.915899, 10.842741], [-9.921255, 10.866548], [-9.918641, 10.890558], [-9.90359, 10.911723], [-9.900042, 10.92365], [-9.902941, 10.941104], [-9.871455, 10.962177], [-9.845429, 10.986815], [-9.807746, 11.033776], [-9.815075, 11.058589], [-9.818698, 11.087492], [-9.818254, 11.094141], [-9.820519, 11.103415], [-9.820189, 11.115623], [-9.832132, 11.183734], [-9.832598, 11.192492], [-9.871762, 11.192596], [-9.903186, 11.183572], [-9.926682, 11.166558], [-9.949723, 11.141333], [-9.993745, 11.103827], [-9.996857, 11.079835], [-10.01998, 11.038706], [-10.042451, 11.027441], [-10.075782, 11.034872], [-10.105608, 11.046036], [-10.12958, 11.033377], [-10.137675, 11.009077], [-10.148211, 10.99402], [-10.168239, 10.97351], [-10.195152, 10.970113], [-10.203209, 10.953041], [-10.220259, 10.9305], [-10.234745, 10.922329], [-10.239373, 10.894051], [-10.2623, 10.890996], [-10.343422, 10.902989], [-10.37082, 10.902018], [-10.391234, 10.903213], [-10.419106, 10.907079], [-10.4475, 10.906143], [-10.467077, 10.87646], [-10.472689, 10.850626], [-10.479104, 10.765532], [-10.483145, 10.754587], [-10.509094, 10.751011], [-10.495061, 10.701253], [-10.487183, 10.683625], [-10.461499, 10.641756], [-10.455165, 10.614541], [-10.450327, 10.586896], [-10.447493, 10.556912], [-10.467524, 10.545494], [-10.467392, 10.535978]]]}}]}